TOMORROW-S2             
1 60485U 24149T   26068.75188364  .00008133  00000+0  27683-3 0  9990
2 60485  97.3857 150.0385 0001648 234.3331 125.7757 15.30674935 86869
STARLINK-35863          
1 67170U 25303H   26068.04653400  .00052237  00000+0  18938-2 0  9997
2 67170  42.9985 314.6176 0001501 262.5934  97.4747 15.27589320 12638
